NORAD_CAT_ID,OBJECT_NAME,OBJECT_TYPE,EPOCH,MEAN_MOTION,ECCENTRICITY,INCLINATION,RA_OF_ASC_NODE,ARG_OF_PERICENTER,MEAN_ANOMALY,BSTAR,MEAN_MOTION_DOT,MEAN_MOTION_DDOT,TLE_LINE0,TLE_LINE1,TLE_LINE2,SEMIMAJOR_AXIS,PERIOD,APOGEE,PERIGEE,DECAYED
52131.0,STARLINK-3711,PAYLOAD,2024-08-19 07:53:40,15.08812777,0.0001131,53.2157,96.1028,109.537,250.5745,0.00064713,0.00010019,0.0,0 STARLINK-3711,1 52131U 22029AV  24232.32893915  .00010019  00000-0  64713-3 0  9995,2 52131  53.2157  96.1028 0001131 109.5370 250.5745 15.08812777135287,6917.964,95.439,540.611,539.046,0.0
52131.0,STARLINK-3711,PAYLOAD,2024-08-19 20:36:45,15.0885472,9.29e-05,53.2139,93.7226,103.7983,256.3112,0.0016806,0.00026571,0.0,0 STARLINK-3711,1 52131U 22029AV  24232.85885718  .00026571  00000-0  16806-2 0  9994,2 52131  53.2139  93.7226 0000929 103.7983 256.3112 15.08854720135365,6917.835,95.437,540.343,539.058,0.0
52131.0,STARLINK-3711,PAYLOAD,2024-08-20 07:44:26,15.08880328,0.0001037,53.2148,91.6363,89.1928,270.9183,0.001583,0.00025023,0.0,0 STARLINK-3711,1 52131U 22029AV  24233.32252834  .00025023  00000-0  15830-2 0  9991,2 52131  53.2148  91.6363 0001037  89.1928 270.9183 15.08880328135432,6917.757,95.435,540.339,538.905,0.0
52131.0,STARLINK-3711,PAYLOAD,2024-08-20 20:27:31,15.08864348,9.23e-05,53.2136,89.2622,106.2178,253.8915,0.0011854,0.00018641,0.0,0 STARLINK-3711,1 52131U 22029AV  24233.85244467  .00018641  00000-0  11854-2 0  9992,2 52131  53.2136  89.2622 0000923 106.2178 253.8915 15.08864348135517,6917.806,95.436,540.309,539.032,0.0
52131.0,STARLINK-3711,PAYLOAD,2024-08-20 22:02:54,15.08864874,9.9e-05,53.2138,88.965,102.7254,257.3848,0.001397,0.0002203,0.0,0 STARLINK-3711,1 52131U 22029AV  24233.91868440  .00022030  00000-0  13970-2 0  9990,2 52131  53.2138  88.9650 0000990 102.7254 257.3848 15.08864874135525,6917.804,95.436,540.354,538.984,0.0
52131.0,STARLINK-3711,PAYLOAD,2024-08-21 18:42:54,15.08861826,0.000116,53.2148,85.0956,99.0762,261.0361,0.0011636,0.0001829,0.0,0 STARLINK-3711,1 52131U 22029AV  24234.77980053  .00018290  00000-0  11636-2 0  9990,2 52131  53.2148  85.0956 0001160  99.0762 261.0361 15.08861826135655,6917.814,95.436,540.481,538.876,0.0
52131.0,STARLINK-3711,PAYLOAD,2024-08-21 20:18:17,15.08858794,0.0001147,53.2151,84.7984,123.4355,236.6747,0.00074005,0.00011516,0.0,0 STARLINK-3711,1 52131U 22029AV  24234.84603822  .00011516  00000-0  74005-3 0  9998,2 52131  53.2151  84.7984 0001147 123.4355 236.6747 15.08858794135668,6917.823,95.436,540.481,538.894,0.0
